start=new Date('2022-10-16T00:00:00.000Z').valueOf();
sats=[{"ELEMENT_SET_NO":"999","OBJECT_ID":"2022-084V","NORAD_CAT_ID":"53208","MEAN_MOTION_DDOT":"0.0000000000000","BSTAR":"0.00005577700000","MEAN_MOTION":"15.01266431","GP_ID":"215250180","MEAN_ELEMENT_THEORY":"SGP4","INCLINATION":"97.6537","CENTER_NAME":"EARTH","RCS_SIZE":"LARGE","LAUNCH_DATE":"2022-07-22","OBJECT_TYPE":"PAYLOAD","COUNTRY_CODE":"US","PERIAPSIS":"561.520","TIME_SYSTEM":"UTC","TLE_LINE1":"1 53208U 22084V   22288.69351812  .00000658  00000-0  55777-4 0  9995","OBJECT_NAME":"STARLINK-4425","REV_AT_EPOCH":"1312","DECAY_DATE":null,"TLE_LINE2":"2 53208  97.6537 348.2473 0002121 117.8929 242.2511 15.01266431 13124","REF_FRAME":"TEME","APOAPSIS":"564.464","PERIOD":"95.919","CLASSIFICATION_TYPE":"U","ECCENTRICITY":"0.00021210","FILE":"3615679","RA_OF_ASC_NODE":"348.2473","MEAN_ANOMALY":"242.2511","EPHEMERIS_TYPE":"0","SEMIMAJOR_AXIS":"6941.127","MEAN_MOTION_DOT":"0.00000658","ARG_OF_PERICENTER":"117.8929","SITE":"AFWTR","EPOCH":"2022-10-15T16:38:39.965568"},{"SITE":"AFWTR","ARG_OF_PERICENTER":"126.7837","MEAN_MOTION_DOT":"0.00000669","EPOCH":"2022-10-15T18:01:39.290880","PERIOD":"95.918","CLASSIFICATION_TYPE":"U","ECCENTRICITY":"0.00020330","APOAPSIS":"564.362","SEMIMAJOR_AXIS":"6941.086","EPHEMERIS_TYPE":"0","MEAN_ANOMALY":"233.3574","RA_OF_ASC_NODE":"348.3043","FILE":"3615679","OBJECT_TYPE":"PAYLOAD","LAUNCH_DATE":"2022-07-22","CENTER_NAME":"EARTH","RCS_SIZE":"LARGE","REF_FRAME":"TEME","TLE_LINE2":"2 53209  97.6560 348.3043 0002033 126.7837 233.3574 15.01279839 13131","REV_AT_EPOCH":"1313","DECAY_DATE":null,"TLE_LINE1":"1 53209U 22084W   22288.75114920  .00000669  00000-0  56615-4 0  9994","OBJECT_NAME":"STARLINK-4423","TIME_SYSTEM":"UTC","PERIAPSIS":"561.540","COUNTRY_CODE":"US","BSTAR":"0.00005661500000","MEAN_MOTION_DDOT":"0.0000000000000","NORAD_CAT_ID":"53209","OBJECT_ID":"2022-084W","ELEMENT_SET_NO":"999","INCLINATION":"97.6560","MEAN_ELEMENT_THEORY":"SGP4","GP_ID":"215250931","MEAN_MOTION":"15.01279839"},{"CENTER_NAME":"EARTH","RCS_SIZE":"LARGE","LAUNCH_DATE":"2022-07-22","OBJECT_TYPE":"PAYLOAD","COUNTRY_CODE":"US","TIME_SYSTEM":"UTC","PERIAPSIS":"561.802","OBJECT_NAME":"STARLINK-4427","TLE_LINE1":"1 53210U 22084X   22288.75646946  .00001109  00000-0  90917-4 0  9997","DECAY_DATE":null,"REV_AT_EPOCH":"1367","TLE_LINE2":"2 53210  97.6550 348.3099 0001696  99.5221 260.6195 15.01270522 13672","REF_FRAME":"TEME","ELEMENT_SET_NO":"999","OBJECT_ID":"2022-084X","NORAD_CAT_ID":"53210","BSTAR":"0.00009091700000","MEAN_MOTION_DDOT":"0.0000000000000","MEAN_MOTION":"15.01270522","GP_ID":"215249929","MEAN_ELEMENT_THEORY":"SGP4","INCLINATION":"97.6550","MEAN_MOTION_DOT":"0.00001109","ARG_OF_PERICENTER":"99.5221","SITE":"AFWTR","EPOCH":"2022-10-15T18:09:18.961344","APOAPSIS":"564.157","PERIOD":"95.919","CLASSIFICATION_TYPE":"U","ECCENTRICITY":"0.00016960","FILE":"3615679","RA_OF_ASC_NODE":"348.3099","MEAN_ANOMALY":"260.6195","EPHEMERIS_TYPE":"0","SEMIMAJOR_AXIS":"6941.114"},{"EPOCH":"2022-10-15T17:55:58.996704","SITE":"AFWTR","ARG_OF_PERICENTER":"134.5824","MEAN_MOTION_DOT":"-0.00000362","SEMIMAJOR_AXIS":"6941.122","EPHEMERIS_TYPE":"0","FILE":"3615679","MEAN_ANOMALY":"225.5585","RA_OF_ASC_NODE":"348.3003","APOAPSIS":"564.558","CLASSIFICATION_TYPE":"U","PERIOD":"95.919","ECCENTRICITY":"0.00022630","TLE_LINE1":"1 53211U 22084Y   22288.74721061 -.00000362  00000-0 -23596-4 0  9990","OBJECT_NAME":"STARLINK-4419","TLE_LINE2":"2 53211  97.6550 348.3003 0002263 134.5824 225.5585 15.01268039 13659","REF_FRAME":"TEME","DECAY_DATE":null,"REV_AT_EPOCH":"1365","COUNTRY_CODE":"US","TIME_SYSTEM":"UTC","PERIAPSIS":"561.416","LAUNCH_DATE":"2022-07-22","OBJECT_TYPE":"PAYLOAD","CENTER_NAME":"EARTH","RCS_SIZE":"LARGE","MEAN_ELEMENT_THEORY":"SGP4","INCLINATION":"97.6550","GP_ID":"215250514","MEAN_MOTION":"15.01268039","BSTAR":"-0.00002359600000","MEAN_MOTION_DDOT":"0.0000000000000","NORAD_CAT_ID":"53211","ELEMENT_SET_NO":"999","OBJECT_ID":"2022-084Y"},{"MEAN_MOTION":"15.01296722","GP_ID":"215249762","INCLINATION":"97.6542","MEAN_ELEMENT_THEORY":"SGP4","OBJECT_ID":"2022-084Z","ELEMENT_SET_NO":"999","NORAD_CAT_ID":"53212","MEAN_MOTION_DDOT":"0.0000000000000","BSTAR":"0.00110960000000","TIME_SYSTEM":"UTC","PERIAPSIS":"561.361","COUNTRY_CODE":"US","DECAY_DATE":null,"REV_AT_EPOCH":"1313","TLE_LINE2":"2 53212  97.6542 348.3051 0002216 118.1079 242.0369 15.01296722 13139","REF_FRAME":"TEME","TLE_LINE1":"1 53212U 22084Z   22288.75092122  .00014236  00000-0  11096-2 0  9994","OBJECT_NAME":"STARLINK-4416","CENTER_NAME":"EARTH","RCS_SIZE":"LARGE","OBJECT_TYPE":"PAYLOAD","LAUNCH_DATE":"2022-07-22","RA_OF_ASC_NODE":"348.3051","MEAN_ANOMALY":"242.0369","FILE":"3615679","EPHEMERIS_TYPE":"0","SEMIMAJOR_AXIS":"6941.034","ECCENTRICITY":"0.00022160","PERIOD":"95.917","CLASSIFICATION_TYPE":"U","APOAPSIS":"564.437","EPOCH":"2022-10-15T18:01:19.593408","MEAN_MOTION_DOT":"0.00014236","ARG_OF_PERICENTER":"118.1079","SITE":"AFWTR"},{"SITE":"AFWTR","ARG_OF_PERICENTER":"120.6128","MEAN_MOTION_DOT":"-0.00000760","EPOCH":"2022-10-15T17:47:59.868960","CLASSIFICATION_TYPE":"U","PERIOD":"95.920","ECCENTRICITY":"0.00019320","APOAPSIS":"564.358","SEMIMAJOR_AXIS":"6941.152","EPHEMERIS_TYPE":"0","MEAN_ANOMALY":"239.5287","RA_OF_ASC_NODE":"348.2943","FILE":"3615679","OBJECT_TYPE":"PAYLOAD","LAUNCH_DATE":"2022-07-22","RCS_SIZE":"LARGE","CENTER_NAME":"EARTH","TLE_LINE2":"2 53213  97.6544 348.2943 0001932 120.6128 239.5287 15.01258280 13652","REF_FRAME":"TEME","DECAY_DATE":null,"REV_AT_EPOCH":"1365","OBJECT_NAME":"STARLINK-4414","TLE_LINE1":"1 53213U 22084AA  22288.74166515 -.00000760  00000-0 -54575-4 0  9992","TIME_SYSTEM":"UTC","PERIAPSIS":"561.676","COUNTRY_CODE":"US","BSTAR":"-0.00005457500000","MEAN_MOTION_DDOT":"0.0000000000000","NORAD_CAT_ID":"53213","OBJECT_ID":"2022-084AA","ELEMENT_SET_NO":"999","INCLINATION":"97.6544","MEAN_ELEMENT_THEORY":"SGP4","GP_ID":"215250681","MEAN_MOTION":"15.01258280"},{"OBJECT_NAME":"STARLINK-4353","TLE_LINE1":"1 53214U 22084AB  22288.74905682  .00000168  00000-0  17645-4 0  9996","REV_AT_EPOCH":"1313","DECAY_DATE":null,"REF_FRAME":"TEME","TLE_LINE2":"2 53214  97.6540 348.3029 0001870 130.4982 229.6405 15.01270111 13135","COUNTRY_CODE":"US","PERIAPSIS":"561.683","TIME_SYSTEM":"UTC","LAUNCH_DATE":"2022-07-22","OBJECT_TYPE":"PAYLOAD","RCS_SIZE":"LARGE","CENTER_NAME":"EARTH","MEAN_ELEMENT_THEORY":"SGP4","INCLINATION":"97.6540","MEAN_MOTION":"15.01270111","GP_ID":"215250347","NORAD_CAT_ID":"53214","BSTAR":"0.00001764500000","MEAN_MOTION_DDOT":"0.0000000000000","ELEMENT_SET_NO":"999","OBJECT_ID":"2022-084AB","EPOCH":"2022-10-15T17:58:38.509248","SITE":"AFWTR","MEAN_MOTION_DOT":"0.00000168","ARG_OF_PERICENTER":"130.4982","EPHEMERIS_TYPE":"0","SEMIMAJOR_AXIS":"6941.116","FILE":"3615679","RA_OF_ASC_NODE":"348.3029","MEAN_ANOMALY":"229.6405","APOAPSIS":"564.279","CLASSIFICATION_TYPE":"U","PERIOD":"95.919","ECCENTRICITY":"0.00018700"},{"EPOCH":"2022-10-15T17:45:18.745056","MEAN_MOTION_DOT":"0.00001856","ARG_OF_PERICENTER":"119.8704","SITE":"AFWTR","FILE":"3615679","RA_OF_ASC_NODE":"348.2929","MEAN_ANOMALY":"240.2702","EPHEMERIS_TYPE":"0","SEMIMAJOR_AXIS":"6941.113","APOAPSIS":"564.251","PERIOD":"95.919","CLASSIFICATION_TYPE":"U","ECCENTRICITY":"0.00018340","COUNTRY_CODE":"US","TIME_SYSTEM":"UTC","PERIAPSIS":"561.705","TLE_LINE1":"1 53215U 22084AC  22288.73980029  .00001856  00000-0  14902-3 0  9991","OBJECT_NAME":"STARLINK-4335","DECAY_DATE":null,"REV_AT_EPOCH":"1365","TLE_LINE2":"2 53215  97.6550 348.2929 0001834 119.8704 240.2702 15.01271099 13650","REF_FRAME":"TEME","RCS_SIZE":"LARGE","CENTER_NAME":"EARTH","LAUNCH_DATE":"2022-07-22","OBJECT_TYPE":"PAYLOAD","MEAN_MOTION":"15.01271099","GP_ID":"215250097","MEAN_ELEMENT_THEORY":"SGP4","INCLINATION":"97.6550","ELEMENT_SET_NO":"999","OBJECT_ID":"2022-084AC","NORAD_CAT_ID":"53215","BSTAR":"0.00014902000000","MEAN_MOTION_DDOT":"0.0000000000000"},{"SITE":"AFWTR","ARG_OF_PERICENTER":"124.3017","MEAN_MOTION_DOT":"0.00000343","EPOCH":"2022-10-15T17:53:18.708288","PERIOD":"95.918","CLASSIFICATION_TYPE":"U","ECCENTRICITY":"0.00019980","APOAPSIS":"564.352","SEMIMAJOR_AXIS":"6941.101","EPHEMERIS_TYPE":"0","MEAN_ANOMALY":"235.8397","RA_OF_ASC_NODE":"348.2986","FILE":"3615679","OBJECT_TYPE":"PAYLOAD","LAUNCH_DATE":"2022-07-22","RCS_SIZE":"LARGE","CENTER_NAME":"EARTH","REF_FRAME":"TEME","TLE_LINE2":"2 53216  97.6538 348.2986 0001998 124.3017 235.8397 15.01274991 13136","REV_AT_EPOCH":"1313","DECAY_DATE":null,"TLE_LINE1":"1 53216U 22084AD  22288.74535542  .00000343  00000-0  31320-4 0  9993","OBJECT_NAME":"STARLINK-4376","PERIAPSIS":"561.579","TIME_SYSTEM":"UTC","COUNTRY_CODE":"US","BSTAR":"0.00003132000000","MEAN_MOTION_DDOT":"0.0000000000000","NORAD_CAT_ID":"53216","OBJECT_ID":"2022-084AD","ELEMENT_SET_NO":"999","INCLINATION":"97.6538","MEAN_ELEMENT_THEORY":"SGP4","GP_ID":"215250181","MEAN_MOTION":"15.01274991"},{"EPOCH":"2022-10-15T17:40:20.173440","ARG_OF_PERICENTER":"109.7306","MEAN_MOTION_DOT":"0.00000490","SITE":"AFWTR","FILE":"3615679","MEAN_ANOMALY":"250.4087","RA_OF_ASC_NODE":"348.2901","SEMIMAJOR_AXIS":"6941.114","EPHEMERIS_TYPE":"0","APOAPSIS":"564.066","CLASSIFICATION_TYPE":"U","PERIOD":"95.919","ECCENTRICITY":"0.00015670","COUNTRY_CODE":"US","PERIAPSIS":"561.891","TIME_SYSTEM":"UTC","TLE_LINE1":"1 53217U 22084AE  22288.73634460  .00000490  00000-0  42710-4 0  9990","OBJECT_NAME":"STARLINK-4379","TLE_LINE2":"2 53217  97.6558 348.2901 0001567 109.7306 250.4087 15.01270721 13132","REF_FRAME":"TEME","REV_AT_EPOCH":"1313","DECAY_DATE":null,"RCS_SIZE":"LARGE","CENTER_NAME":"EARTH","LAUNCH_DATE":"2022-07-22","OBJECT_TYPE":"PAYLOAD","GP_ID":"215250932","MEAN_MOTION":"15.01270721","MEAN_ELEMENT_THEORY":"SGP4","INCLINATION":"97.6558","ELEMENT_SET_NO":"999","OBJECT_ID":"2022-084AE","MEAN_MOTION_DDOT":"0.0000000000000","BSTAR":"0.00004271000000","NORAD_CAT_ID":"53217"}];
